{
    "links": {
        "self": "http://www.neowsapp.com/rest/v1/neo/54016357?api_key=iIulBulltgU6a56xZRHN4H3l9WmuAYTsLGpBGhQ2"
    },
    "id": "54016357",
    "neo_reference_id": "54016357",
    "name": "(2020 FM4)",
    "designation": "2020 FM4",
    "nasa_jpl_url": "http://ssd.jpl.nasa.gov/sbdb.cgi?sstr=54016357",
    "absolute_magnitude_h": 23.656,
    "estimated_diameter": {
        "kilometers": {
            "estimated_diameter_min": 0.0493577071,
            "estimated_diameter_max": 0.1103671883
        },
        "meters": {
            "estimated_diameter_min": 49.3577071176,
            "estimated_diameter_max": 110.3671883285
        },
        "miles": {
            "estimated_diameter_min": 0.0306694478,
            "estimated_diameter_max": 0.0685789702
        },
        "feet": {
            "estimated_diameter_min": 161.9347398198,
            "estimated_diameter_max": 362.0970861557
        }
    },
    "is_potentially_hazardous_asteroid": false,
    "close_approach_data": [
        {
            "close_approach_date": "2020-04-04",
            "close_approach_date_full": "2020-Apr-04 16:50",
            "epoch_date_close_approach": 1586019000000,
            "relative_velocity": {
                "kilometers_per_second": "9.4915795675",
                "kilometers_per_hour": "34169.686442988",
                "miles_per_hour": "21231.7143345333"
            },
            "miss_distance": {
                "astronomical": "0.156290732",
                "lunar": "60.797094748",
                "kilometers": "23380760.60794084",
                "miles": "14528130.963389992"
            },
            "orbiting_body": "Earth"
        }
    ],
    "orbital_data": {
        "orbit_id": "3",
        "orbit_determination_date": "2020-04-03 06:34:49",
        "first_observation_date": "2020-03-21",
        "last_observation_date": "2020-04-02",
        "data_arc_in_days": 12,
        "observations_used": 15,
        "orbit_uncertainty": "8",
        "minimum_orbit_intersection": ".0721134",
        "jupiter_tisserand_invariant": "3.575",
        "epoch_osculation": "2458934.5",
        "eccentricity": ".4922516840416432",
        "semi_major_axis": "2.105857920917023",
        "inclination": "4.39121524501587",
        "ascending_node_longitude": "190.1512352505399",
        "orbital_period": "1116.200022226032",
        "perihelion_distance": "1.069245812993185",
        "perihelion_argument": "28.6875838537605",
        "aphelion_distance": "3.142470028840861",
        "perihelion_time": "2458959.482512527498",
        "mean_anomaly": "351.9425691356257",
        "mean_motion": ".3225228389460643",
        "equinox": "J2000",
        "orbit_class": {
            "orbit_class_type": "AMO",
            "orbit_class_description": "Near-Earth asteroid orbits similar to that of 1221 Amor",
            "orbit_class_range": "1.017 AU < q (perihelion) < 1.3 AU"
        }
    },
    "is_sentry_object": false
}